SPACEMOBILE-003         
1 61045U 24163A   26190.16707285  .00000490  00000+0  36599-4 0  9994
2 61045  52.9653 208.3642 0005455 177.5789 182.5233 15.20787211101118
SPACEMOBILE-005         
1 61046U 24163B   26190.74201345  .00004552  00000+0  21851-3 0  9992
2 61046  52.9802 205.6616 0008751 178.6787 181.4232 15.20763652101196
SPACEMOBILE-001         
1 61047U 24163C   26190.74045977  .00000707  00000+0  46335-4 0  9993
2 61047  52.9743 205.3844 0007489 177.9514 182.1512 15.20815426101194
SPACEMOBILE-002         
1 61048U 24163D   26190.26443580  .00006272  00000+0  29470-3 0  9996
2 61048  52.9763 207.6126 0006640 175.9238 184.1811 15.20861316101120
SPACEMOBILE-004         
1 61049U 24163E   26190.57554382 -.00014088  00000+0 -61665-3 0  9992
2 61049  52.9654 205.9666 0008114 207.5207 152.5359 15.20814564101170
SPACEMOBILE-001 DEB     
1 62369U 24163F   26190.64608444  .00006514  00000+0  19796-3 0  9996
2 62369  52.9915 173.6029 0005938 231.3984 128.6486 15.35316597 89953
SPACEMOBILE-002 DEB     
1 62370U 24163G   26189.42321220  .00014113  00000+0  31715-3 0  9995
2 62370  52.9406 163.9171 0004473 260.5662  99.4836 15.43630312101648
SPACEMOBILE-003 DEB     
1 62371U 24163H   26189.64170933  .00014206  00000+0  34383-3 0  9990
2 62371  52.9682 169.6526 0005675 212.5674 147.4980 15.41385961 95198
SPACEMOBILE-004 DEB     
1 62372U 24163J   26190.63003207  .00009824  00000+0  24679-3 0  9998
2 62372  52.9823 164.5763 0002839 239.1621 120.9102 15.40655044 98410
SPACEMOBILE-005 DEB     
1 62373U 24163K   26190.66569428  .00006137  00000+0  19149-3 0  9994
2 62373  52.9724 178.3929 0005886 209.2911 150.7760 15.34585276101578
SPACEMOBILE-006         
1 67232U 25309A   26189.16910173  .00000190  00000+0  24444-4 0  9994
2 67232  52.9947 235.5229 0010630 192.2291 167.8446 15.18644437 29787
SPACEMOBILE-008         
1 69589U 26139A   26190.27299870  .00000479  00000+0  43935-4 0  9997
2 69589  52.9939 162.2948 0004746  42.3763 317.7594 15.12796930  3321
SPACEMOBILE-009         
1 69590U 26139B   26189.94419122  .00000456  00000+0  42786-4 0  9993
2 69590  52.9929 163.7993 0004980  36.9056 323.2277 15.12689610  3272
SPACEMOBILE-010         
1 69591U 26139C   26190.60738347  .00000292  00000+0  33614-4 0  9990
2 69591  52.9935 160.8181 0004902  29.8087 330.3182 15.12521494  3387
